[{"OBJECT_NAME":"IRIDIUM 105","OBJECT_ID":"2017-003E","EPOCH":"2026-03-09T19:29:46.518144","MEAN_MOTION":14.34401202,"ECCENTRICITY":0.0002251,"INCLINATION":86.3921,"RA_OF_ASC_NODE":98.4421,"ARG_OF_PERICENTER":92.6468,"MEAN_ANOMALY":267.4986,"EPHEMERIS_TYPE":0,"CLASSIFICATION_TYPE":"U","NORAD_CAT_ID":41921,"ELEMENT_SET_NO":999,"REV_AT_EPOCH":48089,"BSTAR":7.7196279e-5,"MEAN_MOTION_DOT":2.37e-6,"MEAN_MOTION_DDOT":0},{"OBJECT_NAME":"CZ-6A DEB","OBJECT_ID":"2024-140TV","EPOCH":"2026-03-09T13:45:30.477888","MEAN_MOTION":14.62074276,"ECCENTRICITY":0.0128193,"INCLINATION":88.8916,"RA_OF_ASC_NODE":274.1171,"ARG_OF_PERICENTER":227.9722,"MEAN_ANOMALY":131.0525,"EPHEMERIS_TYPE":0,"CLASSIFICATION_TYPE":"U","NORAD_CAT_ID":61308,"ELEMENT_SET_NO":999,"REV_AT_EPOCH":8147,"BSTAR":0.00066363,"MEAN_MOTION_DOT":3.766e-5,"MEAN_MOTION_DDOT":0}]
